{
  "norad_id": 55489,
  "name": "STARLINK-5371",
  "history": [
    {
      "epoch": "2026-03-28T18:16:33.638016Z",
      "apogee_km": 486.6528252448097,
      "perigee_km": 484.4777179949324,
      "latitude_deg": 1.3378778088089246e-05,
      "longitude_deg": 131.56925091223286,
      "height_km": 485.57057098958205,
      "semi_major_axis_km": 6863.702271619871,
      "eccentricity": 0.00015845,
      "inclination_deg": 42.9998,
      "raan_deg": 231.8867,
      "arg_perigee_deg": 257.8743,
      "mean_anomaly_deg": 102.1931,
      "mean_motion_rev_day": 15.2674008
    }
  ]
}